LANDSAT 9               
1 49260U 21088A   23282.22281582  .00001027  00000+0  23807-3 0  9999
2 49260  98.2185 350.6933 0001408  81.6048 278.5310 14.57092368107992
